STARLINK-32413          
1 61590U 24187S   26068.26198836  .00001516  00000+0  63343-4 0  9993
2 61590  53.1606  67.3298 0001412  80.6883 279.4278 15.30183449 79014
TEVEL2-9                
1 63237U 25052AD  26068.70229538  .00018694  00000+0  67240-3 0  9992
2 63237  97.4057 324.3929 0007990 124.2475 235.9522 15.28633834 54816
